SAUDISAT 5A             
1 43831U 18102A   26196.18987366  .00003037  00000+0  11261-3 0  9999
2 43831  97.3053 257.2335 0010430  43.7379 316.4685 15.28321059419953
SAUDISAT 5B             
1 43833U 18102C   26196.20414434  .00002942  00000+0  10838-3 0  9998
2 43833  97.3162 260.3680 0011211  45.0986 315.1162 15.28564255420079
GAOFEN-10R              
1 44622U 19066A   26196.15385134  .00000502  00000+0  68384-4 0  9993
2 44622  98.0508 149.9385 0006882  53.2639 306.9205 14.83057073366526
CARTOSAT-3              
1 44804U 19081A   26196.14921929  .00003037  00000+0  14731-3 0  9991
2 44804  97.4295 257.5642 0013019  59.5036 300.7482 15.19187136367711
GAOFEN-12 01            
1 44819U 19082A   26196.19607499  .00000158  00000+0  27290-4 0  9992
2 44819  97.8109 201.8372 0000969  54.4894 305.6409 14.80479512358232
CSG-1                   
1 44873U 19092A   26196.13575049  .00000150  00000+0  25448-4 0  9997
2 44873  97.8896  19.3345 0001498  89.9267 270.2118 14.82156710355619
NEMO-HD                 
1 46277U 20061F   26196.17632470  .00006536  00000+0  13984-3 0  9996
2 46277  97.1905 257.8545 0000987  95.8920 264.2442 15.45138603326306
SENTINEL-6A             
1 46984U 20086A   26196.03666786 -.00000039  00000+0  94152-4 0  9990
2 46984  66.0412  77.2098 0007784 269.7720  90.2404 12.80930172263894
CAS500-1                
1 47932U 21022A   26196.17014178  .00003512  00000+0  16553-3 0  9998
2 47932  97.3867  90.8524 0005183 171.0477 189.0851 15.20131064295011
GAOFEN-12 02            
1 48079U 21026A   26196.21015072  .00000149  00000+0  26476-4 0  9993
2 48079  97.9934 194.2779 0005844 132.1820 227.9889 14.80316065285901
PLEIADES NEO 3          
1 48268U 21034A   26196.21158584 -.00000659  00000+0 -77173-4 0  9996
2 48268  97.8946 270.5748 0001291  94.3058 265.8303 14.81665536281809
PLEIADES NEO 4          
1 49070U 21073E   26196.17781396  .00001003  00000+0  13407-3 0  9990
2 49070  97.8945 270.5376 0001353  95.1057 265.0310 14.81674201265513
LANDSAT 9               
1 49260U 21088A   26196.14518391  .00000154  00000+0  44309-4 0  9999
2 49260  98.2270 265.9824 0001139  88.3470 271.7859 14.57095450255079
CSG-2                   
1 51444U 22008A   26196.16947780 -.00000401  00000+0 -43878-4 0  9996
2 51444  97.8885  19.3617 0001534  84.7121 275.4267 14.82148577240734
GAOFEN-12 03            
1 52912U 22069A   26196.17725831  .00000729  00000+0  10296-3 0  9994
2 52912  97.8248  83.3381 0002435  73.0791 287.0688 14.80076171218753
SWOT                    
1 54754U 22173A   26196.14121377  .00000032  00000+0  23488-4 0  9993
2 54754  77.6110 357.5708 0000258  77.0480 283.0701 14.00172412183066
GAOFEN-12 04            
1 57654U 23123A   26196.19695443  .00000437  00000+0  64935-4 0  9997
2 57654  97.9101 113.7963 0003521  50.5235 309.6287 14.79775218156779
PARS 1                  
1 59065U 24039Q   26196.21077178  .00006684  00000+0  13738-3 0  9998
2 59065  97.4837 178.0276 0009772  26.9113 333.2641 15.46289809132979
RESURS-P 4              
1 59371U 24061A   26196.21479156  .00001649  00000+0  55326-4 0  9991
2 59371  97.2759 143.6297 0003226  89.5368 270.6244 15.32280063128051
LEGION 1                
1 59625U 24081A   26196.19908537  .00001903  00000+0  10012-3 0  9997
2 59625  97.5012 273.7590 0007707 269.7342  90.3008 15.16843583121783
LEGION 2                
1 59626U 24081B   26196.16350189  .00001898  00000+0  99893-4 0  9997
2 59626  97.5012 273.8206 0010219 233.7756 126.2533 15.16822590121788
ALOS-4 (DAICHI-4)       
1 60182U 24123A   26196.22616172  .00000320  00000+0  49773-4 0  9998
2 60182  97.9221 292.9996 0001586  97.9849 262.1543 14.79469384110023
LEGION 3                
1 60452U 24146A   26196.13881796  .00001540  00000+0  93256-4 0  9999
2 60452  45.0019 240.6907 0008224 333.7706  26.2755 15.15655257106265
LEGION 4                
1 60453U 24146B   26195.80902400  .00001933  00000+0  11348-3 0  9996
2 60453  45.0030 334.3256 0008945 111.3803 248.8031 15.15679876105064
SENTINEL-2C             
1 60989U 24157A   26196.21451650  .00000045  00000+0  33668-4 0  9997
2 60989  98.5685 270.5987 0000954 104.0012 256.1277 14.30815672 96999
IONOSFERA-M 1           
1 61735U 24199A   26196.18346184  .00000026  00000+0  31389-4 0  9991
2 61735  98.7135  69.0554 0002161  72.8936 287.2479 14.22759150131685
IONOSFERA-M 2           
1 61736U 24199B   26196.14736505  .00000028  00000+0  31962-4 0  9997
2 61736  98.7134  68.9300 0000501 124.3183 235.8043 14.22762512134804
PRSC-EO1                
1 62725U 25012A   26196.21301369  .00003992  00000+0  20170-3 0  9996
2 62725  97.4218 268.1234 0006766 146.4086 213.7578 15.17621135 82448
BIOMASS                 
1 63772U 25090A   26195.99093675  .00000254  00000+0  53205-4 0  9991
2 63772  98.0750  22.9000 0001449  96.9584 263.1785 14.67537294 64761
GOSAT-GW (IBUKI GW)     
1 64694U 25141A   26196.14454789  .00000149  00000+0  34759-4 0  9993
2 64694  98.0565 133.0074 0001438  85.7731 274.3638 14.67554073 55947
IONOSFERA-M 3           
1 64876U 25155A   26196.19010633 -.00000010  00000+0  15097-4 0  9993
2 64876  98.6040 157.3926 0002292 112.5440 247.5980 14.21490768 50388
