OBJECT_NAME,OBJECT_ID,EPOCH,MEAN_MOTION,ECCENTRICITY,INCLINATION,RA_OF_ASC_NODE,ARG_OF_PERICENTER,MEAN_ANOMALY,EPHEMERIS_TYPE,CLASSIFICATION_TYPE,NORAD_CAT_ID,ELEMENT_SET_NO,REV_AT_EPOCH,BSTAR,MEAN_MOTION_DOT,MEAN_MOTION_DDOT
SAUDISAT 5A,2018-102A,2026-07-15T04:33:25.084224,15.28321059,.001043,97.3053,257.2335,43.7379,316.4685,0,U,43831,999,41995,.11261E-3,.3037E-4,0
SAUDISAT 5B,2018-102C,2026-07-15T04:53:58.070976,15.28564255,.0011211,97.3162,260.3680,45.0986,315.1162,0,U,43833,999,42007,.10838E-3,.2942E-4,0
GAOFEN-10R,2019-066A,2026-07-15T03:41:32.755776,14.83057073,.0006882,98.0508,149.9385,53.2639,306.9205,0,U,44622,999,36652,.68384E-4,.502E-5,0
CARTOSAT-3,2019-081A,2026-07-15T03:34:52.546656,15.19187136,.0013019,97.4295,257.5642,59.5036,300.7482,0,U,44804,999,36771,.14731E-3,.3037E-4,0
GAOFEN-12 01,2019-082A,2026-07-15T04:42:20.879136,14.80479512,.0000969,97.8109,201.8372,54.4894,305.6409,0,U,44819,999,35823,.2729E-4,.158E-5,0
CSG-1,2019-092A,2026-07-15T03:15:28.842336,14.82156710,.0001498,97.8896,19.3345,89.9267,270.2118,0,U,44873,999,35561,.25448E-4,.15E-5,0
NEMO-HD,2020-061F,2026-07-15T04:13:54.454080,15.45138603,.0000987,97.1905,257.8545,95.8920,264.2442,0,U,46277,999,32630,.13984E-3,.6536E-4,0
SENTINEL-6A,2020-086A,2026-07-15T00:52:48.103104,12.80930172,.0007784,66.0412,77.2098,269.7720,90.2404,0,U,46984,999,26389,.94152E-4,-.39E-6,0
CAS500-1,2021-022A,2026-07-15T04:05:00.249792,15.20131064,.0005183,97.3867,90.8524,171.0477,189.0851,0,U,47932,999,29501,.16553E-3,.3512E-4,0
GAOFEN-12 02,2021-026A,2026-07-15T05:02:37.022208,14.80316065,.0005844,97.9934,194.2779,132.1820,227.9889,0,U,48079,999,28590,.26476E-4,.149E-5,0
PLEIADES NEO 3,2021-034A,2026-07-15T05:04:41.016576,14.81665536,.0001291,97.8946,270.5748,94.3058,265.8303,0,U,48268,999,28180,-.77173E-4,-.659E-5,0
PLEIADES NEO 4,2021-073E,2026-07-15T04:16:03.126144,14.81674201,.0001353,97.8945,270.5376,95.1057,265.0310,0,U,49070,999,26551,.13407E-3,.1003E-4,0
LANDSAT 9,2021-088A,2026-07-15T03:29:03.889824,14.57095450,.0001139,98.2270,265.9824,88.3470,271.7859,0,U,49260,999,25507,.44309E-4,.154E-5,0
CSG-2,2022-008A,2026-07-15T04:04:02.881920,14.82148577,.0001534,97.8885,19.3617,84.7121,275.4267,0,U,51444,999,24073,-.43878E-4,-.401E-5,0
GAOFEN-12 03,2022-069A,2026-07-15T04:15:15.117984,14.80076171,.0002435,97.8248,83.3381,73.0791,287.0688,0,U,52912,999,21875,.10296E-3,.729E-5,0
SWOT,2022-173A,2026-07-15T03:23:20.869728,14.00172412,.0000258,77.6110,357.5708,77.0480,283.0701,0,U,54754,999,18306,.23488E-4,.32E-6,0
GAOFEN-12 04,2023-123A,2026-07-15T04:43:36.862752,14.79775218,.0003521,97.9101,113.7963,50.5235,309.6287,0,U,57654,999,15677,.64935E-4,.437E-5,0
PARS 1,2024-039Q,2026-07-15T05:03:30.681792,15.46289809,.0009772,97.4837,178.0276,26.9113,333.2641,0,U,59065,999,13297,.13738E-3,.6684E-4,0
RESURS-P 4,2024-061A,2026-07-15T05:09:17.990784,15.32280063,.0003226,97.2759,143.6297,89.5368,270.6244,0,U,59371,999,12805,.55326E-4,.1649E-4,0
LEGION 1,2024-081A,2026-07-15T04:46:40.975968,15.16843583,.0007707,97.5012,273.7590,269.7342,90.3008,0,U,59625,999,12178,.10012E-3,.1903E-4,0
LEGION 2,2024-081B,2026-07-15T03:55:26.563296,15.16822590,.0010219,97.5012,273.8206,233.7756,126.2533,0,U,59626,999,12178,.99893E-4,.1898E-4,0
ALOS-4 (DAICHI-4),2024-123A,2026-07-15T05:25:40.372608,14.79469384,.0001586,97.9221,292.9996,97.9849,262.1543,0,U,60182,999,11002,.49773E-4,.32E-5,0
LEGION 3,2024-146A,2026-07-15T03:19:53.871744,15.15655257,.0008224,45.0019,240.6907,333.7706,26.2755,0,U,60452,999,10626,.93256E-4,.154E-4,0
LEGION 4,2024-146B,2026-07-14T19:24:59.673600,15.15679876,.00089457,45.0030,334.3256,111.3803,248.8031,0,U,60453,999,10506,.11348257E-3,.1933E-4,0
SENTINEL-2C,2024-157A,2026-07-15T05:08:54.225600,14.30815672,.0000954,98.5685,270.5987,104.0012,256.1277,0,U,60989,999,9699,.33668E-4,.45E-6,0
IONOSFERA-M 1,2024-199A,2026-07-15T04:24:11.102976,14.22759150,.0002161,98.7135,69.0554,72.8936,287.2479,0,U,61735,999,13168,.31389E-4,.26E-6,0
IONOSFERA-M 2,2024-199B,2026-07-15T03:32:12.340320,14.22762512,.0000501,98.7134,68.9300,124.3183,235.8043,0,U,61736,999,13480,.31962E-4,.28E-6,0
PRSC-EO1,2025-012A,2026-07-15T05:06:44.382816,15.17621135,.0006766,97.4218,268.1234,146.4086,213.7578,0,U,62725,999,8244,.2017E-3,.3992E-4,0
BIOMASS,2025-090A,2026-07-14T23:46:56.935200,14.67537294,.0001449,98.0750,22.9000,96.9584,263.1785,0,U,63772,999,6476,.53205E-4,.254E-5,0
GOSAT-GW (IBUKI GW),2025-141A,2026-07-15T03:28:08.937696,14.67554073,.0001438,98.0565,133.0074,85.7731,274.3638,0,U,64694,999,5594,.34759E-4,.149E-5,0
IONOSFERA-M 3,2025-155A,2026-07-15T04:33:45.186912,14.21490768,.0002292,98.6040,157.3926,112.5440,247.5980,0,U,64876,999,5038,.15097E-4,-.1E-6,0
